STARLINK-37557          
1 69231U 26115W   26154.91668981 -.02134542  00000+0 -11822-1 0  9999
2 69231  97.2828 171.6701 0001627  86.9471 217.8986 15.82825227  2569
STARLINK-37745          
1 69232U 26115X   26154.91668981 -.02236707  00000+0 -11517-1 0  9997
2 69232  97.2821 171.6774 0001297  83.3295 241.0409 15.84533411  2563
STARLINK-37739          
1 69233U 26115Y   26154.91668981 -.00889653  00000+0 -49893-2 0  9999
2 69233  97.2826 171.6677 0001307  91.1983 210.0912 15.81453476  2568
STARLINK-37755          
1 69234U 26115Z   26154.91668981 -.01883358  00000+0 -98987-2 0  9995
2 69234  97.2823 171.6727 0001244  90.9924 221.1349 15.83516625  2569
TJS-24                  
1 69235U 26116A   26146.91903053  .00005573 -37133-6  21296-3 0  9997
2 69235  19.5460 149.2488 7312999 179.4286 182.6145  2.27837712    23
STARLINK-37665          
1 69238U 26117A   26154.91668981 -.02047990  12653-2 -35635-2 0  9997
2 69238  53.1587 310.5776 0000896  52.4606 150.6810 16.01691574  2030
STARLINK-37558          
1 69239U 26117B   26154.91668981 -.02072977  12989-2 -35545-2 0  9993
2 69239  53.1585 310.5705 0000821  50.8095 155.7943 16.01944458  2038
STARLINK-37680          
1 69240U 26117C   26154.91668981 -.02065152  12943-2 -34777-2 0  9998
2 69240  53.1586 310.5631 0000738  46.0197 164.1636 16.02250956  2022
STARLINK-37742          
1 69241U 26117D   26154.91668981 -.02044259  12734-2 -33906-2 0  9995
2 69241  53.1586 310.5574 0000762  42.3417 170.5503 16.02506413  2037
STARLINK-37718          
1 69242U 26117E   26154.91668981 -.02073252  13110-2 -34028-2 0  9996
2 69242  53.1586 310.5513 0000748  41.7708 174.0035 16.02686367  2026
STARLINK-37735          
1 69243U 26117F   26154.91668981 -.02110469  13593-2 -34317-2 0  9995
2 69243  53.1585 310.5443 0000583  44.9996 174.1673 16.02847151  2039
STARLINK-37757          
1 69244U 26117G   26154.91668981 -.02053947  12975-2 -32509-2 0  9997
2 69244  53.1586 310.5359 0000728  48.3992 174.7605 16.03294796  2035
STARLINK-37767          
1 69245U 26117H   26154.91668981 -.02009869  12572-2 -30313-2 0  9996
2 69245  53.1583 310.5189 0000752  43.6527 187.8467 16.04094299  2031
STARLINK-35759          
1 69246U 26117J   26154.91668981 -.02052507  13115-2 -30658-2 0  9990
2 69246  53.1584 310.5128 0000615  44.6840 189.6254 16.04257770  2087
STARLINK-37238          
1 69247U 26117K   26154.91668981 -.01957288  12073-2 -28116-2 0  9998
2 69247  53.1584 310.5015 0000710  54.4097 185.2514 16.04891669  2039
STARLINK-37412          
1 69248U 26117L   26154.91668981 -.01985600  12507-2 -27458-2 0  9998
2 69248  53.1583 310.4905 0000663  45.4639 199.6742 16.05514702  2106
STARLINK-37398          
1 69249U 26117M   26154.91668981 -.01941103  11982-2 -26782-2 0  9994
2 69249  53.1582 310.4844 0000553  38.4665 209.4490 16.05547321  2100
STARLINK-37499          
1 69250U 26117N   26154.91668981 -.01985629  12540-2 -27117-2 0  9991
2 69250  53.1582 310.4780 0000643  46.6119 204.4271 16.05717743  2105
STARLINK-37489          
1 69251U 26117P   26154.91668981 -.01905076  11652-2 -25317-2 0  9993
2 69251  53.1584 310.4692 0000405  40.7601 214.3993 16.06150781  2102
STARLINK-37434          
1 69252U 26117Q   26154.91668981 -.01863591  11223-2 -24250-2 0  9998
2 69252  53.1582 310.4620 0000535  38.1851 220.4791 16.06484392  2038
STARLINK-37368          
1 69253U 26117R   26154.91668981 -.01789371  10511-2 -22012-2 0  9995
2 69253  53.1580 310.4451 0000436  38.3630 228.4530 16.07370656  2101
STARLINK-37517          
1 69254U 26117S   26154.68369555 -.00677385  18276-3 -75139-3 0  9991
2 69254  53.1592 311.6534 0000247 205.1340 154.9683 16.08801040   839
STARLINK-37378          
1 69255U 26117T   26154.91668981 -.01839899  11130-2 -22144-2 0  9992
2 69255  53.1582 310.4321 0000495  34.3518 238.7243 16.07720671  2029
STARLINK-37396          
1 69256U 26117U   26154.91668981 -.01818401  10942-2 -21328-2 0  9992
2 69256  53.1582 310.4218 0000424  51.2371 226.6434 16.08123842  2107
STARLINK-37508          
1 69257U 26117V   26154.91668981 -.01806438  10850-2 -20778-2 0  9996
2 69257  53.1581 310.4140 0000459  40.9436 240.6180 16.08426712  2023
STARLINK-37276          
1 69258U 26117W   26154.91668981 -.01751885  10307-2 -19499-2 0  9997
2 69258  53.1581 310.4028 0000434  34.6816 252.1461 16.08931309  2027
STARLINK-37518          
1 69259U 26117X   26154.91668981 -.01687548  96565-3 -18297-2 0  9998
2 69259  53.1580 310.3961 0000365  48.7829 241.5690 16.09328169  2037
STARLINK-37478          
1 69260U 26117Y   26154.91668981 -.01694116  97598-3 -18067-2 0  9991
2 69260  53.1581 310.3882 0000343  46.5162 247.6372 16.09582541  2034
