OBJECT_NAME,OBJECT_ID,EPOCH,MEAN_MOTION,ECCENTRICITY,INCLINATION,RA_OF_ASC_NODE,ARG_OF_PERICENTER,MEAN_ANOMALY,EPHEMERIS_TYPE,CLASSIFICATION_TYPE,NORAD_CAT_ID,ELEMENT_SET_NO,REV_AT_EPOCH,BSTAR,MEAN_MOTION_DOT,MEAN_MOTION_DDOT
STARLINK-37557,2026-115W,2026-06-03T22:00:01.999584,15.82825227,.00016275,97.2828,171.6701,86.9471,217.8986,0,U,69231,999,256,-.11822213E-1,-.2134542E-1,0
STARLINK-37745,2026-115X,2026-06-03T22:00:01.999584,15.84533411,.00012976,97.2821,171.6774,83.3295,241.0409,0,U,69232,999,256,-.11516775E-1,-.2236707E-1,0
STARLINK-37739,2026-115Y,2026-06-03T22:00:01.999584,15.81453476,.00013079,97.2826,171.6677,91.1983,210.0912,0,U,69233,999,256,-.49893165E-2,-.889653E-2,0
STARLINK-37755,2026-115Z,2026-06-03T22:00:01.999584,15.83516625,.0001244,97.2823,171.6727,90.9924,221.1349,0,U,69234,999,256,-.98986879E-2,-.1883358E-1,0
TJS-24,2026-116A,2026-05-26T22:03:24.237792,2.27837712,.7312999,19.5460,149.2488,179.4286,182.6145,0,U,69235,999,2,.21296435E-3,.5573E-4,-.371334E-6
STARLINK-37665,2026-117A,2026-06-03T22:00:01.999584,16.01691574,.0000896,53.1587,310.5776,52.4606,150.6810,0,U,69238,999,203,-.3563547E-2,-.204799E-1,.12652839E-2
STARLINK-37558,2026-117B,2026-06-03T22:00:01.999584,16.01944458,.00008211,53.1585,310.5705,50.8095,155.7943,0,U,69239,999,203,-.35544816E-2,-.2072977E-1,.12988697E-2
STARLINK-37680,2026-117C,2026-06-03T22:00:01.999584,16.02250956,.00007387,53.1586,310.5631,46.0197,164.1636,0,U,69240,999,202,-.34777086E-2,-.2065152E-1,.12943284E-2
STARLINK-37742,2026-117D,2026-06-03T22:00:01.999584,16.02506413,.00007628,53.1586,310.5574,42.3417,170.5503,0,U,69241,999,203,-.33906343E-2,-.2044259E-1,.127339E-2
STARLINK-37718,2026-117E,2026-06-03T22:00:01.999584,16.02686367,.00007482,53.1586,310.5513,41.7708,174.0035,0,U,69242,999,202,-.34028023E-2,-.2073252E-1,.13110322E-2
STARLINK-37735,2026-117F,2026-06-03T22:00:01.999584,16.02847151,.00005838,53.1585,310.5443,44.9996,174.1673,0,U,69243,999,203,-.34316554E-2,-.2110469E-1,.13592675E-2
STARLINK-37757,2026-117G,2026-06-03T22:00:01.999584,16.03294796,.00007289,53.1586,310.5359,48.3992,174.7605,0,U,69244,999,203,-.32509322E-2,-.2053947E-1,.12974806E-2
STARLINK-37767,2026-117H,2026-06-03T22:00:01.999584,16.04094299,.00007524,53.1583,310.5189,43.6527,187.8467,0,U,69245,999,203,-.30312791E-2,-.2009869E-1,.12572195E-2
STARLINK-35759,2026-117J,2026-06-03T22:00:01.999584,16.04257770,.00006156,53.1584,310.5128,44.6840,189.6254,0,U,69246,999,208,-.3065841E-2,-.2052507E-1,.13114775E-2
STARLINK-37238,2026-117K,2026-06-03T22:00:01.999584,16.04891669,.00007104,53.1584,310.5015,54.4097,185.2514,0,U,69247,999,203,-.28116243E-2,-.1957288E-1,.12072506E-2
STARLINK-37412,2026-117L,2026-06-03T22:00:01.999584,16.05514702,.0000663,53.1583,310.4905,45.4639,199.6742,0,U,69248,999,210,-.27458012E-2,-.19856E-1,.12506617E-2
STARLINK-37398,2026-117M,2026-06-03T22:00:01.999584,16.05547321,.00005534,53.1582,310.4844,38.4665,209.4490,0,U,69249,999,210,-.26782403E-2,-.1941103E-1,.11982084E-2
STARLINK-37499,2026-117N,2026-06-03T22:00:01.999584,16.05717743,.00006432,53.1582,310.4780,46.6119,204.4271,0,U,69250,999,210,-.27116669E-2,-.1985629E-1,.12539647E-2
STARLINK-37489,2026-117P,2026-06-03T22:00:01.999584,16.06150781,.00004056,53.1584,310.4692,40.7601,214.3993,0,U,69251,999,210,-.25316708E-2,-.1905076E-1,.11651815E-2
STARLINK-37434,2026-117Q,2026-06-03T22:00:01.999584,16.06484392,.00005351,53.1582,310.4620,38.1851,220.4791,0,U,69252,999,203,-.24249619E-2,-.1863591E-1,.11222702E-2
STARLINK-37368,2026-117R,2026-06-03T22:00:01.999584,16.07370656,.00004362,53.1580,310.4451,38.3630,228.4530,0,U,69253,999,210,-.22012024E-2,-.1789371E-1,.1051134E-2
STARLINK-37517,2026-117S,2026-06-03T16:24:31.295520,16.08801040,.00002474,53.1592,311.6534,205.1340,154.9683,0,U,69254,999,83,-.75138621E-3,-.677385E-2,.18276295E-3
STARLINK-37378,2026-117T,2026-06-03T22:00:01.999584,16.07720671,.00004954,53.1582,310.4321,34.3518,238.7243,0,U,69255,999,202,-.22144433E-2,-.1839899E-1,.11130038E-2
STARLINK-37396,2026-117U,2026-06-03T22:00:01.999584,16.08123842,.00004248,53.1582,310.4218,51.2371,226.6434,0,U,69256,999,210,-.21327584E-2,-.1818401E-1,.10942391E-2
STARLINK-37508,2026-117V,2026-06-03T22:00:01.999584,16.08426712,.00004596,53.1581,310.4140,40.9436,240.6180,0,U,69257,999,202,-.20778442E-2,-.1806438E-1,.10849513E-2
STARLINK-37276,2026-117W,2026-06-03T22:00:01.999584,16.08931309,.00004344,53.1581,310.4028,34.6816,252.1461,0,U,69258,999,202,-.19498921E-2,-.1751885E-1,.10306863E-2
STARLINK-37518,2026-117X,2026-06-03T22:00:01.999584,16.09328169,.00003655,53.1580,310.3961,48.7829,241.5690,0,U,69259,999,203,-.18296789E-2,-.1687548E-1,.96564836E-3
STARLINK-37478,2026-117Y,2026-06-03T22:00:01.999584,16.09582541,.00003437,53.1581,310.3882,46.5162,247.6372,0,U,69260,999,203,-.18066941E-2,-.1694116E-1,.97598165E-3
